ONEWEB-0233             
1 48795U 21045AE  26003.27865243 -.00000016  00000+0 -77841-4 0  9992
2 48795  87.9003 292.1533 0001506  64.2522 295.8763 13.15548195222615
ONEWEB-0190             
1 48796U 21045AF  26003.26610312  .00000005  00000+0 -19473-4 0  9991
2 48796  87.9008 292.1166 0001728  49.3572 310.7709 13.15551309222683
ONEWEB-0236             
1 48797U 21045AG  26003.28354371 -.00000073  00000+0 -22729-3 0  9997
2 48797  87.9007 292.1247 0001560  81.6732 278.4576 13.15548201222571
ONEWEB-0248             
1 48798U 21045AH  26003.29623190 -.00000039  00000+0 -13694-3 0  9990
2 48798  87.9020 292.0884 0001279  57.1197 303.0056 13.15547809222732
ONEWEB-0225             
1 48799U 21045AJ  26003.24235666  .00000196  00000+0  48790-3 0  9990
2 48799  87.9005 292.1216 0001726  52.5804 307.5483 13.15547301222737
ONEWEB-0215             
1 48800U 21045AK  26003.28829680 -.00000085  00000+0 -26078-3 0  9996
2 48800  87.9021 292.0761 0001556  49.3174 310.8092 13.15547463222616
ONEWEB-0216             
1 48801U 21045AL  26003.29781020 -.00000028  00000+0 -10974-3 0  9998
2 48801  87.9007 292.1023 0001831  72.4968 287.6362 13.15548006222623
ONEWEB-0239             
1 48802U 21045AM  26003.30256507  .00000053  00000+0  10670-3 0  9997
2 48802  87.9005 292.1157 0001241  46.4231 313.7002 13.15548221222664
